start=new Date('2022-05-01T00:00:00.000Z').valueOf();
sats=[{"REF_FRAME":"TEME","SITE":"AFETR","OBJECT_NAME":"STARLINK-2293","ECCENTRICITY":"0.00018720","EPHEMERIS_TYPE":"0","CENTER_NAME":"EARTH","INCLINATION":"53.0548","MEAN_MOTION_DDOT":"0.0000000000000","FILE":"3422880","LAUNCH_DATE":"2021-03-14","CLASSIFICATION_TYPE":"U","ARG_OF_PERICENTER":"47.1205","COUNTRY_CODE":"US","OBJECT_TYPE":"PAYLOAD","MEAN_ANOMALY":"312.9941","MEAN_ELEMENT_THEORY":"SGP4","EPOCH":"2022-04-30T06:22:45.348960","REV_AT_EPOCH":"6376","OBJECT_ID":"2021-021D","APOAPSIS":"548.519","NORAD_CAT_ID":"47863","RA_OF_ASC_NODE":"118.7807","GP_ID":"202354149","PERIOD":"95.592","ELEMENT_SET_NO":"999","TLE_LINE1":"1 47863U 21021D   22120.26580265  .00000905  00000-0  79653-4 0  9993","RCS_SIZE":"LARGE","TLE_LINE2":"2 47863  53.0548 118.7807 0001872  47.1205 312.9941 15.06396973 63764","BSTAR":"0.00007965300000","MEAN_MOTION_DOT":"0.00000905","SEMIMAJOR_AXIS":"6925.358","MEAN_MOTION":"15.06396973","DECAY_DATE":null,"TIME_SYSTEM":"UTC","PERIAPSIS":"545.926"},{"DECAY_DATE":null,"TIME_SYSTEM":"UTC","MEAN_MOTION":"15.06403588","PERIAPSIS":"545.920","MEAN_MOTION_DOT":"0.00000358","SEMIMAJOR_AXIS":"6925.338","BSTAR":"0.00004297000000","TLE_LINE2":"2 47864  53.0547 108.0014 0001852  52.0567 308.0589 15.06403588 63439","RCS_SIZE":"LARGE","TLE_LINE1":"1 47864U 21021E   22120.43902734  .00000358  00000-0  42970-4 0  9996","GP_ID":"202365649","RA_OF_ASC_NODE":"108.0014","ELEMENT_SET_NO":"999","PERIOD":"95.592","APOAPSIS":"548.485","NORAD_CAT_ID":"47864","OBJECT_ID":"2021-021E","EPOCH":"2022-04-30T10:32:11.962176","REV_AT_EPOCH":"6343","MEAN_ANOMALY":"308.0589","OBJECT_TYPE":"PAYLOAD","MEAN_ELEMENT_THEORY":"SGP4","COUNTRY_CODE":"US","CLASSIFICATION_TYPE":"U","ARG_OF_PERICENTER":"52.0567","MEAN_MOTION_DDOT":"0.0000000000000","FILE":"3423178","LAUNCH_DATE":"2021-03-14","INCLINATION":"53.0547","EPHEMERIS_TYPE":"0","CENTER_NAME":"EARTH","OBJECT_NAME":"STARLINK-2304","ECCENTRICITY":"0.00018520","REF_FRAME":"TEME","SITE":"AFETR"},{"RCS_SIZE":"LARGE","TLE_LINE2":"2 47865  53.0551 116.7902 0001715  55.2979 304.8172 15.06402930 63934","BSTAR":"0.00001064700000","SEMIMAJOR_AXIS":"6925.340","MEAN_MOTION_DOT":"-0.00000123","MEAN_MOTION":"15.06402930","DECAY_DATE":null,"TIME_SYSTEM":"UTC","PERIAPSIS":"546.017","OBJECT_ID":"2021-021F","APOAPSIS":"548.392","NORAD_CAT_ID":"47865","RA_OF_ASC_NODE":"116.7902","GP_ID":"202390513","PERIOD":"95.592","ELEMENT_SET_NO":"999","TLE_LINE1":"1 47865U 21021F   22120.70442550 -.00000123  00000-0  10647-4 0  9999","ARG_OF_PERICENTER":"55.2979","CLASSIFICATION_TYPE":"U","COUNTRY_CODE":"US","OBJECT_TYPE":"PAYLOAD","MEAN_ELEMENT_THEORY":"SGP4","MEAN_ANOMALY":"304.8172","EPOCH":"2022-04-30T16:54:22.363200","REV_AT_EPOCH":"6393","REF_FRAME":"TEME","SITE":"AFETR","ECCENTRICITY":"0.00017150","OBJECT_NAME":"STARLINK-2310","EPHEMERIS_TYPE":"0","CENTER_NAME":"EARTH","INCLINATION":"53.0551","MEAN_MOTION_DDOT":"0.0000000000000","FILE":"3423346","LAUNCH_DATE":"2021-03-14"},{"ECCENTRICITY":"0.00021600","OBJECT_NAME":"STARLINK-2320","REF_FRAME":"TEME","SITE":"AFETR","MEAN_MOTION_DDOT":"0.0000000000000","FILE":"3423346","LAUNCH_DATE":"2021-03-14","INCLINATION":"53.0559","CENTER_NAME":"EARTH","EPHEMERIS_TYPE":"0","MEAN_ANOMALY":"313.6195","OBJECT_TYPE":"PAYLOAD","MEAN_ELEMENT_THEORY":"SGP4","COUNTRY_CODE":"US","ARG_OF_PERICENTER":"46.4973","CLASSIFICATION_TYPE":"U","EPOCH":"2022-04-30T16:59:40.684128","REV_AT_EPOCH":"6398","APOAPSIS":"548.690","NORAD_CAT_ID":"47866","OBJECT_ID":"2021-021G","TLE_LINE1":"1 47866U 21021G   22120.70810977  .00000248  00000-0  35553-4 0  9992","GP_ID":"202391765","RA_OF_ASC_NODE":"116.7963","PERIOD":"95.592","ELEMENT_SET_NO":"999","TLE_LINE2":"2 47866  53.0559 116.7963 0002160  46.4973 313.6195 15.06406390 63983","BSTAR":"0.00003555300000","RCS_SIZE":"LARGE","DECAY_DATE":null,"TIME_SYSTEM":"UTC","MEAN_MOTION":"15.06406390","PERIAPSIS":"545.698","SEMIMAJOR_AXIS":"6925.329","MEAN_MOTION_DOT":"0.00000248"},{"MEAN_MOTION":"15.06401424","DECAY_DATE":null,"TIME_SYSTEM":"UTC","PERIAPSIS":"546.070","SEMIMAJOR_AXIS":"6925.344","MEAN_MOTION_DOT":"-0.00001129","RCS_SIZE":"LARGE","BSTAR":"-0.00005693000000","TLE_LINE2":"2 47867  53.0541 107.9969 0001645  50.0730 310.0403 15.06401424 63887","TLE_LINE1":"1 47867U 21021H   22120.43627676 -.00001129  00000-0 -56930-4 0  9998","RA_OF_ASC_NODE":"107.9969","GP_ID":"202354649","PERIOD":"95.592","ELEMENT_SET_NO":"999","APOAPSIS":"548.348","NORAD_CAT_ID":"47867","OBJECT_ID":"2021-021H","EPOCH":"2022-04-30T10:28:14.312064","REV_AT_EPOCH":"6388","COUNTRY_CODE":"US","MEAN_ELEMENT_THEORY":"SGP4","OBJECT_TYPE":"PAYLOAD","MEAN_ANOMALY":"310.0403","CLASSIFICATION_TYPE":"U","ARG_OF_PERICENTER":"50.0730","MEAN_MOTION_DDOT":"0.0000000000000","LAUNCH_DATE":"2021-03-14","FILE":"3422880","EPHEMERIS_TYPE":"0","CENTER_NAME":"EARTH","INCLINATION":"53.0541","ECCENTRICITY":"0.00016450","OBJECT_NAME":"STARLINK-2321","REF_FRAME":"TEME","SITE":"AFETR"},{"REV_AT_EPOCH":"6469","EPOCH":"2022-04-30T19:52:11.098272","ARG_OF_PERICENTER":"76.3197","CLASSIFICATION_TYPE":"U","MEAN_ELEMENT_THEORY":"SGP4","OBJECT_TYPE":"PAYLOAD","MEAN_ANOMALY":"283.7957","COUNTRY_CODE":"US","INCLINATION":"53.0578","CENTER_NAME":"EARTH","EPHEMERIS_TYPE":"0","FILE":"3423346","LAUNCH_DATE":"2021-03-14","MEAN_MOTION_DDOT":"0.0000000000000","SITE":"AFETR","REF_FRAME":"TEME","OBJECT_NAME":"STARLINK-2323","ECCENTRICITY":"0.00014870","MEAN_MOTION_DOT":"-0.00001992","SEMIMAJOR_AXIS":"6925.369","PERIAPSIS":"546.204","TIME_SYSTEM":"UTC","DECAY_DATE":null,"MEAN_MOTION":"15.06393436","TLE_LINE2":"2 47868  53.0578  56.2434 0001487  76.3197 283.7957 15.06393436 64696","BSTAR":"-0.00011488000000","RCS_SIZE":"LARGE","PERIOD":"95.593","ELEMENT_SET_NO":"999","GP_ID":"202390263","RA_OF_ASC_NODE":"56.2434","TLE_LINE1":"1 47868U 21021J   22120.82790623 -.00001992  00000-0 -11488-3 0  9991","OBJECT_ID":"2021-021J","NORAD_CAT_ID":"47868","APOAPSIS":"548.263"},{"EPOCH":"2022-04-30T16:45:05.275872","REV_AT_EPOCH":"6407","ARG_OF_PERICENTER":"51.8726","CLASSIFICATION_TYPE":"U","COUNTRY_CODE":"US","MEAN_ANOMALY":"308.2427","OBJECT_TYPE":"PAYLOAD","MEAN_ELEMENT_THEORY":"SGP4","CENTER_NAME":"EARTH","EPHEMERIS_TYPE":"0","INCLINATION":"53.0549","MEAN_MOTION_DDOT":"0.0000000000000","FILE":"3423346","LAUNCH_DATE":"2021-03-14","REF_FRAME":"TEME","SITE":"AFETR","ECCENTRICITY":"0.00018230","OBJECT_NAME":"STARLINK-2324","SEMIMAJOR_AXIS":"6925.358","MEAN_MOTION_DOT":"0.00001070","MEAN_MOTION":"15.06396960","TIME_SYSTEM":"UTC","DECAY_DATE":null,"PERIAPSIS":"545.960","RCS_SIZE":"LARGE","BSTAR":"0.00009076000000","TLE_LINE2":"2 47869  53.0549 106.8393 0001823  51.8726 308.2427 15.06396960 64073","RA_OF_ASC_NODE":"106.8393","GP_ID":"202391014","ELEMENT_SET_NO":"999","PERIOD":"95.592","TLE_LINE1":"1 47869U 21021K   22120.69797773  .00001070  00000-0  90760-4 0  9996","OBJECT_ID":"2021-021K","APOAPSIS":"548.485","NORAD_CAT_ID":"47869"},{"EPOCH":"2022-04-30T12:24:21.436128","REV_AT_EPOCH":"6310","ARG_OF_PERICENTER":"39.6552","CLASSIFICATION_TYPE":"U","OBJECT_TYPE":"PAYLOAD","MEAN_ELEMENT_THEORY":"SGP4","MEAN_ANOMALY":"320.4587","COUNTRY_CODE":"US","INCLINATION":"53.0534","CENTER_NAME":"EARTH","EPHEMERIS_TYPE":"0","MEAN_MOTION_DDOT":"0.0000000000000","FILE":"3422622","LAUNCH_DATE":"2021-03-14","REF_FRAME":"TEME","SITE":"AFETR","ECCENTRICITY":"0.00020600","OBJECT_NAME":"STARLINK-2326","MEAN_MOTION_DOT":"-0.00000243","SEMIMAJOR_AXIS":"6925.370","DECAY_DATE":null,"TIME_SYSTEM":"UTC","MEAN_MOTION":"15.06392917","PERIAPSIS":"545.809","BSTAR":"0.00000259880000","TLE_LINE2":"2 47870  53.0534 132.6298 0002060  39.6552 320.4587 15.06392917 63109","RCS_SIZE":"LARGE","GP_ID":"202327148","RA_OF_ASC_NODE":"132.6298","ELEMENT_SET_NO":"999","PERIOD":"95.593","TLE_LINE1":"1 47870U 21021L   22120.51691477 -.00000243  00000-0  25988-5 0  9996","OBJECT_ID":"2021-021L","APOAPSIS":"548.662","NORAD_CAT_ID":"47870"},{"MEAN_MOTION":"15.06397741","DECAY_DATE":null,"TIME_SYSTEM":"UTC","PERIAPSIS":"545.828","SEMIMAJOR_AXIS":"6925.355","MEAN_MOTION_DOT":"-0.00000273","RCS_SIZE":"LARGE","BSTAR":"0.00000057808000","TLE_LINE2":"2 47871  53.0547 106.8555 0002010  46.8462 313.2694 15.06397741 63961","TLE_LINE1":"1 47871U 21021M   22120.69428997 -.00000273  00000-0  57808-6 0  9991","RA_OF_ASC_NODE":"106.8555","GP_ID":"202392015","PERIOD":"95.592","ELEMENT_SET_NO":"999","APOAPSIS":"548.612","NORAD_CAT_ID":"47871","OBJECT_ID":"2021-021M","EPOCH":"2022-04-30T16:39:46.653408","REV_AT_EPOCH":"6396","COUNTRY_CODE":"US","MEAN_ELEMENT_THEORY":"SGP4","OBJECT_TYPE":"PAYLOAD","MEAN_ANOMALY":"313.2694","ARG_OF_PERICENTER":"46.8462","CLASSIFICATION_TYPE":"U","MEAN_MOTION_DDOT":"0.0000000000000","FILE":"3423346","LAUNCH_DATE":"2021-03-14","CENTER_NAME":"EARTH","EPHEMERIS_TYPE":"0","INCLINATION":"53.0547","OBJECT_NAME":"STARLINK-2327","ECCENTRICITY":"0.00020100","REF_FRAME":"TEME","SITE":"AFETR"},{"BSTAR":"0.00024665000000","TLE_LINE2":"2 47872  53.0562  52.8576 0008213 280.9205  79.0874 15.39880213 64740","RCS_SIZE":"LARGE","MEAN_MOTION_DOT":"0.00009569","SEMIMAJOR_AXIS":"6824.600","PERIAPSIS":"440.860","DECAY_DATE":null,"TIME_SYSTEM":"UTC","MEAN_MOTION":"15.39880213","OBJECT_ID":"2021-021N","NORAD_CAT_ID":"47872","APOAPSIS":"452.070","ELEMENT_SET_NO":"999","PERIOD":"93.514","GP_ID":"202390764","RA_OF_ASC_NODE":"52.8576","TLE_LINE1":"1 47872U 21021N   22120.80502760  .00009569  00000-0  24665-3 0  9994","CLASSIFICATION_TYPE":"U","ARG_OF_PERICENTER":"280.9205","MEAN_ELEMENT_THEORY":"SGP4","OBJECT_TYPE":"PAYLOAD","MEAN_ANOMALY":"79.0874","COUNTRY_CODE":"US","REV_AT_EPOCH":"6474","EPOCH":"2022-04-30T19:19:14.384640","SITE":"AFETR","REF_FRAME":"TEME","ECCENTRICITY":"0.00082130","OBJECT_NAME":"STARLINK-2328","INCLINATION":"53.0562","EPHEMERIS_TYPE":"0","CENTER_NAME":"EARTH","FILE":"3423346","LAUNCH_DATE":"2021-03-14","MEAN_MOTION_DDOT":"0.0000000000000"}];
